CCSDS_OMM_VERS,COMMENT,CREATION_DATE,ORIGINATOR,OBJECT_NAME,OBJECT_ID,CENTER_NAME,REF_FRAME,TIME_SYSTEM,MEAN_ELEMENT_THEORY,EPOCH,MEAN_MOTION,ECCENTRICITY,INCLINATION,RA_OF_ASC_NODE,ARG_OF_PERICENTER,MEAN_ANOMALY,EPHEMERIS_TYPE,CLASSIFICATION_TYPE,NORAD_CAT_ID,ELEMENT_SET_NO,REV_AT_EPOCH,BSTAR,MEAN_MOTION_DOT,MEAN_MOTION_DDOT,SEMIMAJOR_AXIS,PERIOD,APOAPSIS,PERIAPSIS,OBJECT_TYPE,RCS_SIZE,COUNTRY_CODE,LAUNCH_DATE,SITE,DECAY_DATE,FILE,GP_ID,TLE_LINE0,TLE_LINE1,TLE_LINE2
2,GENERATED VIA SPACE-TRACK.ORG API,2022-08-11T22:46:12,18 SPCS,GALILEO-FM2,2011-060B,EARTH,TEME,UTC,SGP4,2022-08-11T07:30:18.117216,1.70475244,0.00018,57.0179,19.846,16.8463,341.9948,0,U,37847,999,6728,0.0,-8.2e-07,0,29600.176,844.697,23227.369,23216.713,PAYLOAD,LARGE,ESA,2011-10-21,FRGUI,,3534611,210038019,0 GALILEO-FM2,1 37847U 11060B   22223.31270969 -.00000082  00000-0  00000+0 0  9995,2 37847  57.0179  19.8460 0001800  16.8463 341.9948  1.70475244 67280
2,GENERATED VIA SPACE-TRACK.ORG API,2022-08-13T18:16:24,18 SPCS,GALILEO-FM2,2011-060B,EARTH,TEME,UTC,SGP4,2022-08-11T21:27:08.111232,1.70475252,0.0001786,57.0181,19.8302,16.6684,338.8267,0,U,37847,999,6716,0.0,-8.4e-07,0,29600.175,844.697,23227.327,23216.754,PAYLOAD,LARGE,ESA,2011-10-21,FRGUI,,3535824,210130423,0 GALILEO-FM2,1 37847U 11060B   22223.89384388 -.00000084  00000-0  00000-0 0  9992,2 37847  57.0181  19.8302 0001786  16.6684 338.8267  1.70475252 67169
2,GENERATED VIA SPACE-TRACK.ORG API,2022-08-14T17:20:26,18 SPCS,GALILEO-FM2,2011-060B,EARTH,TEME,UTC,SGP4,2022-08-13T15:43:28.305408,1.70475293,0.0001734,57.0188,19.7824,16.0333,340.4355,0,U,37847,999,6719,0.0,-9e-07,0,29600.17,844.697,23227.168,23216.903,PAYLOAD,LARGE,ESA,2011-10-21,FRGUI,,3536350,210192542,0 GALILEO-FM2,1 37847U 11060B   22225.65518872 -.00000090  00000-0  00000-0 0  9992,2 37847  57.0188  19.7824 0001734  16.0333 340.4355  1.70475293 67197
2,GENERATED VIA SPACE-TRACK.ORG API,2022-08-14T07:06:12,18 SPCS,GALILEO-FM2,2011-060B,EARTH,TEME,UTC,SGP4,2022-08-13T15:43:28.305408,1.70475293,0.0001734,57.0188,19.7824,16.0333,340.4355,0,U,37847,999,6731,0.0,-9e-07,0,29600.17,844.697,23227.168,23216.903,PAYLOAD,LARGE,ESA,2011-10-21,FRGUI,,3535966,210170320,0 GALILEO-FM2,1 37847U 11060B   22225.65518872 -.00000090  00000-0  00000+0 0  9991,2 37847  57.0188  19.7824 0001734  16.0333 340.4355  1.70475293 67311
2,GENERATED VIA SPACE-TRACK.ORG API,2022-08-15T17:25:04,18 SPCS,GALILEO-FM2,2011-060B,EARTH,TEME,UTC,SGP4,2022-08-15T10:15:27.111168,1.70475349,0.0001682,57.0194,19.7343,15.0567,349.0531,0,U,37847,999,6723,0.0,-9.3e-07,0,29600.164,844.697,23227.008,23217.05,PAYLOAD,LARGE,ESA,2011-10-21,FRGUI,,3537056,210260125,0 GALILEO-FM2,1 37847U 11060B   22227.42739712 -.00000093  00000-0  00000-0 0  9990,2 37847  57.0194  19.7343 0001682  15.0567 349.0531  1.70475349 67238
2,GENERATED VIA SPACE-TRACK.ORG API,2022-08-20T03:27:48,18 SPCS,GALILEO-FM2,2011-060B,EARTH,TEME,UTC,SGP4,2022-08-19T03:15:23.221152,1.7047548,0.0001602,57.0208,19.6338,11.982,107.981,0,U,37847,999,6729,0.0,-9e-07,0,29600.149,844.696,23226.756,23217.272,PAYLOAD,LARGE,ESA,2011-10-21,FRGUI,,3540705,210538090,0 GALILEO-FM2,1 37847U 11060B   22231.13568543 -.00000090  00000-0  00000-0 0  9992,2 37847  57.0208  19.6338 0001602  11.9820 107.9810  1.70475480 67299
2,GENERATED VIA SPACE-TRACK.ORG API,2022-08-19T22:56:12,18 SPCS,GALILEO-FM2,2011-060B,EARTH,TEME,UTC,SGP4,2022-08-19T03:15:23.221152,1.7047548,0.0001602,57.0208,19.6338,11.982,107.981,0,U,37847,999,6741,0.0,-9e-07,0,29600.149,844.696,23226.756,23217.272,PAYLOAD,LARGE,ESA,2011-10-21,FRGUI,,3540549,210522823,0 GALILEO-FM2,1 37847U 11060B   22231.13568543 -.00000090  00000-0  00000+0 0  9991,2 37847  57.0208  19.6338 0001602  11.9820 107.9810  1.70475480 67413
2,GENERATED VIA SPACE-TRACK.ORG API,2022-08-21T18:06:22,18 SPCS,GALILEO-FM2,2011-060B,EARTH,TEME,UTC,SGP4,2022-08-21T06:51:37.204128,1.70475534,0.0001545,57.0216,19.5755,10.3217,349.2405,0,U,37847,999,6732,0.0,-8.6e-07,0,29600.142,844.696,23226.581,23217.434,PAYLOAD,LARGE,ESA,2011-10-21,FRGUI,,3542305,210649060,0 GALILEO-FM2,1 37847U 11060B   22233.28584727 -.00000086  00000-0  00000-0 0  9997,2 37847  57.0216  19.5755 0001545  10.3217 349.2405  1.70475534 67324
2,GENERATED VIA SPACE-TRACK.ORG API,2022-08-21T16:16:13,18 SPCS,GALILEO-FM2,2011-060B,EARTH,TEME,UTC,SGP4,2022-08-21T06:51:37.204128,1.70475534,0.0001545,57.0216,19.5755,10.3217,349.2405,0,U,37847,999,6745,0.0,-8.6e-07,0,29600.142,844.696,23226.581,23217.434,PAYLOAD,LARGE,ESA,2011-10-21,FRGUI,,3542199,210632450,0 GALILEO-FM2,1 37847U 11060B   22233.28584727 -.00000086  00000-0  00000+0 0  9996,2 37847  57.0216  19.5755 0001545  10.3217 349.2405  1.70475534 67458
2,GENERATED VIA SPACE-TRACK.ORG API,2022-08-22T02:23:44,18 SPCS,GALILEO-FM2,2011-060B,EARTH,TEME,UTC,SGP4,2022-08-21T20:50:42.537696,1.70475543,0.0001519,57.0214,19.5598,9.7411,347.4366,0,U,37847,999,6733,0.0,-8.5e-07,0,29600.141,844.696,23226.503,23217.51,PAYLOAD,LARGE,ESA,2011-10-21,FRGUI,,3542671,210682608,0 GALILEO-FM2,1 37847U 11060B   22233.86854789 -.00000085  00000-0  00000-0 0  9998,2 37847  57.0214  19.5598 0001519   9.7411 347.4366  1.70475543 67333
2,GENERATED VIA SPACE-TRACK.ORG API,2022-08-23T02:30:08,18 SPCS,GALILEO-FM2,2011-060B,EARTH,TEME,UTC,SGP4,2022-08-22T11:09:11.021760,1.70475547,0.00015,57.0213,19.5436,9.2261,353.8293,0,U,37847,999,6735,0.0,-8.4e-07,0,29600.141,844.696,23226.446,23217.566,PAYLOAD,LARGE,ESA,2011-10-21,FRGUI,,3544179,210769250,0 GALILEO-FM2,1 37847U 11060B   22234.46471090 -.00000084  00000-0  00000-0 0  9994,2 37847  57.0213  19.5436 0001500   9.2261 353.8293  1.70475547 67357
2,GENERATED VIA SPACE-TRACK.ORG API,2022-08-23T18:01:32,18 SPCS,GALILEO-FM2,2011-060B,EARTH,TEME,UTC,SGP4,2022-08-23T01:05:42.621216,1.70475549,0.0001477,57.0212,19.5279,8.7179,350.861,0,U,37847,999,6735,0.0,-8.2e-07,0,29600.141,844.696,23226.378,23217.634,PAYLOAD,LARGE,ESA,2011-10-21,FRGUI,,3545070,210814360,0 GALILEO-FM2,1 37847U 11060B   22235.04563219 -.00000082  00000-0  00000-0 0  9992,2 37847  57.0212  19.5279 0001477   8.7179 350.8610  1.70475549 67358
2,GENERATED VIA SPACE-TRACK.ORG API,2022-08-24T17:58:17,18 SPCS,GALILEO-FM2,2011-060B,EARTH,TEME,UTC,SGP4,2022-08-23T22:19:09.901344,1.70475546,0.0001465,57.0218,19.504,7.9928,174.3262,0,U,37847,999,6737,0.0,-8e-07,0,29600.141,844.696,23226.343,23217.67,PAYLOAD,LARGE,ESA,2011-10-21,FRGUI,,3546350,210892783,0 GALILEO-FM2,1 37847U 11060B   22235.92997571 -.00000080  00000-0  00000-0 0  9999,2 37847  57.0218  19.5040 0001465   7.9928 174.3262  1.70475546 67371
2,GENERATED VIA SPACE-TRACK.ORG API,2022-08-24T07:36:12,18 SPCS,GALILEO-FM2,2011-060B,EARTH,TEME,UTC,SGP4,2022-08-23T22:19:09.901344,1.70475546,0.0001465,57.0218,19.504,7.9928,174.3262,0,U,37847,999,6749,0.0,-8e-07,0,29600.141,844.696,23226.343,23217.67,PAYLOAD,LARGE,ESA,2011-10-21,FRGUI,,3545890,210869632,0 GALILEO-FM2,1 37847U 11060B   22235.92997571 -.00000080  00000-0  00000+0 0  9998,2 37847  57.0218  19.5040 0001465   7.9928 174.3262  1.70475546 67494
2,GENERATED VIA SPACE-TRACK.ORG API,2022-08-25T03:34:13,18 SPCS,GALILEO-FM2,2011-060B,EARTH,TEME,UTC,SGP4,2022-08-24T19:02:49.820352,1.7047554,0.0001445,57.0226,19.4807,7.4655,344.8975,0,U,37847,999,6738,0.0,-7.8e-07,0,29600.142,844.696,23226.284,23217.73,PAYLOAD,LARGE,ESA,2011-10-21,FRGUI,,3546663,210925387,0 GALILEO-FM2,1 37847U 11060B   22236.79363218 -.00000078  00000-0  00000-0 0  9997,2 37847  57.0226  19.4807 0001445   7.4655 344.8975  1.70475540 67380
2,GENERATED VIA SPACE-TRACK.ORG API,2022-08-25T17:42:49,18 SPCS,GALILEO-FM2,2011-060B,EARTH,TEME,UTC,SGP4,2022-08-25T09:35:51.482688,1.70475531,0.000143,57.0228,19.4643,6.8957,357.5474,0,U,37847,999,6740,0.0,-7.6e-07,0,29600.143,844.696,23226.241,23217.775,PAYLOAD,LARGE,ESA,2011-10-21,FRGUI,,3547226,210963798,0 GALILEO-FM2,1 37847U 11060B   22237.39990142 -.00000076  00000-0  00000-0 0  9994,2 37847  57.0228  19.4643 0001430   6.8957 357.5474  1.70475531 67400
2,GENERATED VIA SPACE-TRACK.ORG API,2022-08-26T15:26:12,18 SPCS,GALILEO-FM2,2011-060B,EARTH,TEME,UTC,SGP4,2022-08-26T13:23:15.871776,1.70475503,0.0001396,57.0228,19.433,5.6937,349.3896,0,U,37847,999,6753,0.0,-7.3e-07,0,29600.146,844.696,23226.143,23217.879,PAYLOAD,LARGE,ESA,2011-10-21,FRGUI,,3548286,211022818,0 GALILEO-FM2,1 37847U 11060B   22238.55782259 -.00000073  00000-0  00000+0 0  9997,2 37847  57.0228  19.4330 0001396   5.6937 349.3896  1.70475503 67539
2,GENERATED VIA SPACE-TRACK.ORG API,2022-08-29T02:53:10,18 SPCS,GALILEO-FM2,2011-060B,EARTH,TEME,UTC,SGP4,2022-08-28T14:44:41.260416,1.70475435,0.0001355,57.0234,19.3773,3.5305,173.6966,0,U,37847,999,6745,0.0,-6.9e-07,0,29600.154,844.696,23226.03,23218.008,PAYLOAD,LARGE,ESA,2011-10-21,FRGUI,,3550014,211203230,0 GALILEO-FM2,1 37847U 11060B   22240.61436644 -.00000069  00000-0  00000-0 0  9997,2 37847  57.0234  19.3773 0001355   3.5305 173.6966  1.70475435 67458
2,GENERATED VIA SPACE-TRACK.ORG API,2022-08-28T23:06:12,18 SPCS,GALILEO-FM2,2011-060B,EARTH,TEME,UTC,SGP4,2022-08-28T14:44:41.260416,1.70475435,0.0001355,57.0234,19.3773,3.5305,173.6966,0,U,37847,999,6757,0.0,-6.9e-07,0,29600.154,844.696,23226.03,23218.008,PAYLOAD,LARGE,ESA,2011-10-21,FRGUI,,3549850,211186355,0 GALILEO-FM2,1 37847U 11060B   22240.61436644 -.00000069  00000-0  00000+0 0  9996,2 37847  57.0234  19.3773 0001355   3.5305 173.6966  1.70475435 67571
2,GENERATED VIA SPACE-TRACK.ORG API,2022-08-29T17:40:56,18 SPCS,GALILEO-FM2,2011-060B,EARTH,TEME,UTC,SGP4,2022-08-28T21:59:07.572768,1.70475425,0.0001347,57.0234,19.3692,3.3836,358.9989,0,U,37847,999,6746,0.0,-6.8e-07,0,29600.155,844.697,23226.007,23218.033,PAYLOAD,LARGE,ESA,2011-10-21,FRGUI,,3550737,211245038,0 GALILEO-FM2,1 37847U 11060B   22240.91605987 -.00000068  00000-0  00000-0 0  9997,2 37847  57.0234  19.3692 0001347   3.3836 358.9989  1.70475425 67469
